start=new Date('2022-10-11T00:00:00.000Z').valueOf();
sats=[{"TLE_LINE2":"2 52566  53.2187 327.0163 0001780  52.2533 307.8620 15.08838972 23293","OBJECT_NAME":"STARLINK-3938","SITE":"AFWTR","NORAD_CAT_ID":"52566","SEMIMAJOR_AXIS":"6917.884","TIME_SYSTEM":"UTC","DECAY_DATE":null,"MEAN_ANOMALY":"307.8620","FILE":"3601747","MEAN_MOTION_DOT":"0.00000801","LAUNCH_DATE":"2022-05-13","PERIAPSIS":"538.517","OBJECT_TYPE":"PAYLOAD","ARG_OF_PERICENTER":"52.2533","BSTAR":"0.00006839200000","CLASSIFICATION_TYPE":"U","GP_ID":"214720665","OBJECT_ID":"2022-051AK","REF_FRAME":"TEME","APOAPSIS":"540.980","ELEMENT_SET_NO":"999","RCS_SIZE":"MEDIUM","INCLINATION":"53.2187","MEAN_MOTION_DDOT":"0.0000000000000","MEAN_MOTION":"15.08838972","EPHEMERIS_TYPE":"0","PERIOD":"95.438","COUNTRY_CODE":"US","TLE_LINE1":"1 52566U 22051AK  22283.82770630  .00000801  00000-0  68392-4 0  9995","REV_AT_EPOCH":"2329","RA_OF_ASC_NODE":"327.0163","CENTER_NAME":"EARTH","EPOCH":"2022-10-10T19:51:53.824320","ECCENTRICITY":"0.00017800","MEAN_ELEMENT_THEORY":"SGP4"},{"APOAPSIS":"541.190","GP_ID":"214679162","OBJECT_ID":"2022-051AL","REF_FRAME":"TEME","BSTAR":"0.00010703000000","CLASSIFICATION_TYPE":"U","ARG_OF_PERICENTER":"37.1699","PERIAPSIS":"538.322","LAUNCH_DATE":"2022-05-13","OBJECT_TYPE":"PAYLOAD","MEAN_MOTION_DOT":"0.00001415","FILE":"3600948","DECAY_DATE":null,"MEAN_ANOMALY":"322.9437","SEMIMAJOR_AXIS":"6917.891","TIME_SYSTEM":"UTC","SITE":"AFWTR","NORAD_CAT_ID":"52567","TLE_LINE2":"2 52567  53.2178 313.6438 0002073  37.1699 322.9437 15.08836430 23449","OBJECT_NAME":"STARLINK-3929","MEAN_ELEMENT_THEORY":"SGP4","ECCENTRICITY":"0.00020730","EPOCH":"2022-10-10T11:06:36.612864","CENTER_NAME":"EARTH","REV_AT_EPOCH":"2344","RA_OF_ASC_NODE":"313.6438","TLE_LINE1":"1 52567U 22051AL  22283.46292376  .00001415  00000-0  10703-3 0  9996","COUNTRY_CODE":"US","PERIOD":"95.438","MEAN_MOTION_DDOT":"0.0000000000000","INCLINATION":"53.2178","MEAN_MOTION":"15.08836430","EPHEMERIS_TYPE":"0","ELEMENT_SET_NO":"999","RCS_SIZE":"LARGE"},{"ECCENTRICITY":"0.00022610","EPOCH":"2022-10-10T10:50:42.698976","CENTER_NAME":"EARTH","RA_OF_ASC_NODE":"313.6982","REV_AT_EPOCH":"2344","MEAN_ELEMENT_THEORY":"SGP4","COUNTRY_CODE":"US","PERIOD":"95.438","MEAN_MOTION":"15.08840468","EPHEMERIS_TYPE":"0","INCLINATION":"53.2169","MEAN_MOTION_DDOT":"0.0000000000000","RCS_SIZE":"LARGE","ELEMENT_SET_NO":"999","TLE_LINE1":"1 52568U 22051AM  22283.45188309  .00003354  00000-0  22871-3 0  9999","ARG_OF_PERICENTER":"37.1294","OBJECT_TYPE":"PAYLOAD","LAUNCH_DATE":"2022-05-13","PERIAPSIS":"538.180","MEAN_MOTION_DOT":"0.00003354","APOAPSIS":"541.308","REF_FRAME":"TEME","OBJECT_ID":"2022-051AM","GP_ID":"214678419","CLASSIFICATION_TYPE":"U","BSTAR":"0.00022871000000","SITE":"AFWTR","NORAD_CAT_ID":"52568","TLE_LINE2":"2 52568  53.2169 313.6982 0002261  37.1294 322.9855 15.08840468 23444","OBJECT_NAME":"STARLINK-3930","FILE":"3600948","MEAN_ANOMALY":"322.9855","DECAY_DATE":null,"SEMIMAJOR_AXIS":"6917.879","TIME_SYSTEM":"UTC"},{"MEAN_MOTION_DOT":"0.00000456","OBJECT_TYPE":"PAYLOAD","LAUNCH_DATE":"2022-05-13","PERIAPSIS":"538.355","ARG_OF_PERICENTER":"35.7989","CLASSIFICATION_TYPE":"U","BSTAR":"0.00004677900000","REF_FRAME":"TEME","GP_ID":"214678998","OBJECT_ID":"2022-051AN","APOAPSIS":"541.182","TLE_LINE2":"2 52569  53.2181 313.6645 0002043  35.7989 324.3140 15.08832535 23447","OBJECT_NAME":"STARLINK-3927","SITE":"AFWTR","NORAD_CAT_ID":"52569","TIME_SYSTEM":"UTC","SEMIMAJOR_AXIS":"6917.903","DECAY_DATE":null,"MEAN_ANOMALY":"324.3140","FILE":"3600948","RA_OF_ASC_NODE":"313.6645","REV_AT_EPOCH":"2344","CENTER_NAME":"EARTH","EPOCH":"2022-10-10T11:01:19.015968","ECCENTRICITY":"0.00020430","MEAN_ELEMENT_THEORY":"SGP4","RCS_SIZE":"LARGE","ELEMENT_SET_NO":"999","MEAN_MOTION":"15.08832535","EPHEMERIS_TYPE":"0","INCLINATION":"53.2181","MEAN_MOTION_DDOT":"0.0000000000000","PERIOD":"95.438","COUNTRY_CODE":"US","TLE_LINE1":"1 52569U 22051AN  22283.45924787  .00000456  00000-0  46779-4 0  9992"},{"PERIOD":"95.438","COUNTRY_CODE":"US","ELEMENT_SET_NO":"999","RCS_SIZE":"LARGE","INCLINATION":"53.2168","MEAN_MOTION_DDOT":"0.0000000000000","EPHEMERIS_TYPE":"0","MEAN_MOTION":"15.08833495","TLE_LINE1":"1 52570U 22051AP  22283.44820325  .00000507  00000-0  49972-4 0  9991","EPOCH":"2022-10-10T10:45:24.760800","ECCENTRICITY":"0.00018830","REV_AT_EPOCH":"2351","RA_OF_ASC_NODE":"313.7094","CENTER_NAME":"EARTH","MEAN_ELEMENT_THEORY":"SGP4","SITE":"AFWTR","NORAD_CAT_ID":"52570","OBJECT_NAME":"STARLINK-3924","TLE_LINE2":"2 52570  53.2168 313.7094 0001883  46.1225 313.9923 15.08833495 23510","DECAY_DATE":null,"MEAN_ANOMALY":"313.9923","FILE":"3601481","TIME_SYSTEM":"UTC","SEMIMAJOR_AXIS":"6917.900","ARG_OF_PERICENTER":"46.1225","MEAN_MOTION_DOT":"0.00000507","PERIAPSIS":"538.463","LAUNCH_DATE":"2022-05-13","OBJECT_TYPE":"PAYLOAD","GP_ID":"214689855","OBJECT_ID":"2022-051AP","REF_FRAME":"TEME","APOAPSIS":"541.068","BSTAR":"0.00004997200000","CLASSIFICATION_TYPE":"U"},{"TLE_LINE1":"1 52574U 22051AQ  22283.78677282  .00000096  00000-0  24128-4 0  9993","ELEMENT_SET_NO":"999","RCS_SIZE":"LARGE","INCLINATION":"53.2178","MEAN_MOTION_DDOT":"0.0000000000000","MEAN_MOTION":"15.08831286","EPHEMERIS_TYPE":"0","PERIOD":"95.438","COUNTRY_CODE":"US","MEAN_ELEMENT_THEORY":"SGP4","REV_AT_EPOCH":"2349","RA_OF_ASC_NODE":"312.1999","CENTER_NAME":"EARTH","EPOCH":"2022-10-10T18:52:57.171648","ECCENTRICITY":"0.00020880","TIME_SYSTEM":"UTC","SEMIMAJOR_AXIS":"6917.907","DECAY_DATE":null,"MEAN_ANOMALY":"317.7553","FILE":"3601747","OBJECT_NAME":"STARLINK-3901","TLE_LINE2":"2 52574  53.2178 312.1999 0002088  42.3600 317.7553 15.08831286 23499","SITE":"AFWTR","NORAD_CAT_ID":"52574","BSTAR":"0.00002412800000","CLASSIFICATION_TYPE":"U","OBJECT_ID":"2022-051AQ","GP_ID":"214720666","REF_FRAME":"TEME","APOAPSIS":"541.216","MEAN_MOTION_DOT":"0.00000096","PERIAPSIS":"538.328","LAUNCH_DATE":"2022-05-13","OBJECT_TYPE":"PAYLOAD","ARG_OF_PERICENTER":"42.3600"},{"NORAD_CAT_ID":"52575","SITE":"AFWTR","TLE_LINE2":"2 52575  53.2170 312.2338 0001865  41.7677 318.3457 15.08838781 23496","OBJECT_NAME":"STARLINK-3920","DECAY_DATE":null,"MEAN_ANOMALY":"318.3457","FILE":"3601747","SEMIMAJOR_AXIS":"6917.884","TIME_SYSTEM":"UTC","ARG_OF_PERICENTER":"41.7677","MEAN_MOTION_DOT":"0.00000414","OBJECT_TYPE":"PAYLOAD","LAUNCH_DATE":"2022-05-13","PERIAPSIS":"538.459","REF_FRAME":"TEME","GP_ID":"214720175","OBJECT_ID":"2022-051AR","APOAPSIS":"541.039","CLASSIFICATION_TYPE":"U","BSTAR":"0.00004414400000","PERIOD":"95.438","COUNTRY_CODE":"US","RCS_SIZE":"LARGE","ELEMENT_SET_NO":"999","EPHEMERIS_TYPE":"0","MEAN_MOTION":"15.08838781","MEAN_MOTION_DDOT":"0.0000000000000","INCLINATION":"53.2170","TLE_LINE1":"1 52575U 22051AR  22283.77572620  .00000414  00000-0  44144-4 0  9997","EPOCH":"2022-10-10T18:37:02.743680","ECCENTRICITY":"0.00018650","RA_OF_ASC_NODE":"312.2338","REV_AT_EPOCH":"2349","CENTER_NAME":"EARTH","MEAN_ELEMENT_THEORY":"SGP4"},{"TLE_LINE1":"1 52576U 22051AS  22283.43811801  .00000723  00000-0  63524-4 0  9994","MEAN_MOTION_DDOT":"0.0000000000000","INCLINATION":"53.2190","EPHEMERIS_TYPE":"0","MEAN_MOTION":"15.08839163","ELEMENT_SET_NO":"999","RCS_SIZE":"LARGE","COUNTRY_CODE":"US","PERIOD":"95.438","MEAN_ELEMENT_THEORY":"SGP4","CENTER_NAME":"EARTH","REV_AT_EPOCH":"2344","RA_OF_ASC_NODE":"313.7498","ECCENTRICITY":"0.00021700","EPOCH":"2022-10-10T10:30:53.396064","SEMIMAJOR_AXIS":"6917.883","TIME_SYSTEM":"UTC","FILE":"3600948","DECAY_DATE":null,"MEAN_ANOMALY":"329.2863","OBJECT_NAME":"STARLINK-3932","TLE_LINE2":"2 52576  53.2190 313.7498 0002170  30.8257 329.2863 15.08839163 23447","SITE":"AFWTR","NORAD_CAT_ID":"52576","BSTAR":"0.00006352400000","CLASSIFICATION_TYPE":"U","APOAPSIS":"541.249","OBJECT_ID":"2022-051AS","GP_ID":"214678420","REF_FRAME":"TEME","LAUNCH_DATE":"2022-05-13","PERIAPSIS":"538.247","OBJECT_TYPE":"PAYLOAD","MEAN_MOTION_DOT":"0.00000723","ARG_OF_PERICENTER":"30.8257"},{"MEAN_ELEMENT_THEORY":"SGP4","CENTER_NAME":"EARTH","RA_OF_ASC_NODE":"327.0578","REV_AT_EPOCH":"2329","ECCENTRICITY":"0.00013640","EPOCH":"2022-10-10T19:41:17.887488","TLE_LINE1":"1 52577U 22051AT  22283.82034592 -.00000846  00000-0 -35062-4 0  9996","MEAN_MOTION":"15.08839364","EPHEMERIS_TYPE":"0","MEAN_MOTION_DDOT":"0.0000000000000","INCLINATION":"53.2187","RCS_SIZE":"LARGE","ELEMENT_SET_NO":"999","COUNTRY_CODE":"US","PERIOD":"95.438","CLASSIFICATION_TYPE":"U","BSTAR":"-0.00003506200000","APOAPSIS":"540.691","REF_FRAME":"TEME","OBJECT_ID":"2022-051AT","GP_ID":"214720359","OBJECT_TYPE":"PAYLOAD","PERIAPSIS":"538.804","LAUNCH_DATE":"2022-05-13","MEAN_MOTION_DOT":"-0.00000846","ARG_OF_PERICENTER":"66.9576","TIME_SYSTEM":"UTC","SEMIMAJOR_AXIS":"6917.882","FILE":"3601747","DECAY_DATE":null,"MEAN_ANOMALY":"293.1560","TLE_LINE2":"2 52577  53.2187 327.0578 0001364  66.9576 293.1560 15.08839364 23298","OBJECT_NAME":"STARLINK-3836","SITE":"AFWTR","NORAD_CAT_ID":"52577"},{"CLASSIFICATION_TYPE":"U","BSTAR":"0.00015727000000","APOAPSIS":"541.128","REF_FRAME":"TEME","OBJECT_ID":"2022-051AU","GP_ID":"214678259","OBJECT_TYPE":"PAYLOAD","LAUNCH_DATE":"2022-05-13","PERIAPSIS":"538.369","MEAN_MOTION_DOT":"0.00002216","ARG_OF_PERICENTER":"46.4677","SEMIMAJOR_AXIS":"6917.884","TIME_SYSTEM":"UTC","FILE":"3600948","DECAY_DATE":null,"MEAN_ANOMALY":"313.6481","OBJECT_NAME":"STARLINK-3833","TLE_LINE2":"2 52578  53.2185 328.8262 0001994  46.4677 313.6481 15.08838936 23238","SITE":"AFWTR","NORAD_CAT_ID":"52578","MEAN_ELEMENT_THEORY":"SGP4","CENTER_NAME":"EARTH","RA_OF_ASC_NODE":"328.8262","REV_AT_EPOCH":"2323","ECCENTRICITY":"0.00019940","EPOCH":"2022-10-10T10:14:16.785024","TLE_LINE1":"1 52578U 22051AU  22283.42658316  .00002216  00000-0  15727-3 0  9995","MEAN_MOTION":"15.08838936","EPHEMERIS_TYPE":"0","MEAN_MOTION_DDOT":"0.0000000000000","INCLINATION":"53.2185","RCS_SIZE":"LARGE","ELEMENT_SET_NO":"999","COUNTRY_CODE":"US","PERIOD":"95.438"}];
